ONEWEB-0020             
1 45133U 20008C   24093.77964472 -.00006912  00000+0 -19870-1 0  9995
2 45133  87.8995 196.2990 0002139 108.9092 251.2268 13.10308165203643
ONEWEB-0021             
1 45134U 20008D   24093.79437882 -.00005200  00000+0 -14969-1 0  9991
2 45134  87.9001 196.3070 0001593 107.4088 252.7214 13.10243299204043
ONEWEB-0022             
1 45135U 20008E   24093.51097835  .00000622  00000+0  17459-2 0  9991
2 45135  87.8999 196.3811 0002006 111.6340 248.5001 13.10400507203582
ONEWEB-0023             
1 45136U 20008F   24093.80720960 -.00005501  00000+0 -15811-1 0  9998
2 45136  87.9001 196.2952 0002334  93.4220 266.7175 13.10348614203350
ONEWEB-0024             
1 45137U 20008G   24093.77802101 -.00001483  00000+0 -42912-2 0  9991
2 45137  87.8986 196.2972 0001803 106.8141 253.3184 13.10285744203519
ONEWEB-0025             
1 45138U 20008H   24093.79601917 -.00005752  00000+0 -16556-1 0  9993
2 45138  87.8991 196.2934 0001646 101.9897 258.1415 13.10235185203843
ONEWEB-0026             
1 45139U 20008J   24093.76884301 -.00111759  00000+0 -32039+0 0  9998
2 45139  87.9040 181.2258 0001593 121.3501 238.7783 13.11159855206421
ONEWEB-0028             
1 45140U 20008K   24093.49542892 -.00000351  00000+0 -10274-2 0  9991
2 45140  87.9034 181.3227 0001919  85.6906 274.4442 13.11416812203027
